[{"OBJECT_NAME":"COSMOS 2580","OBJECT_ID":"2024-230A","EPOCH":"2026-03-09T20:11:18.024576","MEAN_MOTION":13.96672575,"ECCENTRICITY":0.0006756,"INCLINATION":67.1461,"RA_OF_ASC_NODE":292.3144,"ARG_OF_PERICENTER":270.0052,"MEAN_ANOMALY":90.0258,"EPHEMERIS_TYPE":0,"CLASSIFICATION_TYPE":"U","NORAD_CAT_ID":62216,"ELEMENT_SET_NO":999,"REV_AT_EPOCH":6426,"BSTAR":3.1709e-5,"MEAN_MOTION_DOT":-3.1e-7,"MEAN_MOTION_DDOT":0},{"OBJECT_NAME":"UNKNOWN","OBJECT_ID":"","EPOCH":"2026-03-09T16:30:44.564256","MEAN_MOTION":14.36564228,"ECCENTRICITY":0.0359571,"INCLINATION":65.6735,"RA_OF_ASC_NODE":282.8329,"ARG_OF_PERICENTER":31.2915,"MEAN_ANOMALY":28.2093,"EPHEMERIS_TYPE":0,"CLASSIFICATION_TYPE":"U","NORAD_CAT_ID":87764,"ELEMENT_SET_NO":999,"REV_AT_EPOCH":63160,"BSTAR":0.0015438,"MEAN_MOTION_DOT":9.503e-5,"MEAN_MOTION_DDOT":0}]
